[{"OBJECT_NAME":"GONETS-M 19","OBJECT_ID":"2020-068C","EPOCH":"2026-03-09T23:25:54.806592","MEAN_MOTION":12.42888534,"ECCENTRICITY":0.00123158,"INCLINATION":82.4945,"RA_OF_ASC_NODE":48.7988,"ARG_OF_PERICENTER":264.2455,"MEAN_ANOMALY":95.722,"EPHEMERIS_TYPE":0,"CLASSIFICATION_TYPE":"U","NORAD_CAT_ID":46488,"ELEMENT_SET_NO":999,"REV_AT_EPOCH":24692,"BSTAR":5.2679103e-5,"MEAN_MOTION_DOT":1.7e-7,"MEAN_MOTION_DDOT":0},{"OBJECT_NAME":"SL-14 R\/B","OBJECT_ID":"1984-084B","EPOCH":"2026-03-09T22:32:56.421888","MEAN_MOTION":12.42604388,"ECCENTRICITY":0.0005843,"INCLINATION":82.5992,"RA_OF_ASC_NODE":209.83,"ARG_OF_PERICENTER":237.5048,"MEAN_ANOMALY":246.2891,"EPHEMERIS_TYPE":0,"CLASSIFICATION_TYPE":"U","NORAD_CAT_ID":15172,"ELEMENT_SET_NO":999,"REV_AT_EPOCH":88607,"BSTAR":0.00011442977,"MEAN_MOTION_DOT":2.6e-7,"MEAN_MOTION_DDOT":0}]
